{"type":"FeatureCollection","features":[{"type":"Feature","geometry":{"coordinates":[5.358895,43.386402],"type":"Point"},"properties":{"nom":"A et M Bijoutiers","activite":"Bijouterie joaillerie","classeVulnerabilite":"Commerce / service courant","adresse":"19 Avenue du 8 Mai 1945","zoneCode":"BLEU_CU","zoneColor":"#1565C0","concerne":true}},{"type":"Feature","geometry":{"coordinates":[5.359874,43.387639],"type":"Point"},"properties":{"nom":"Agence immobilière Guy Hoquet SEPTEMES LES VALLONS","activite":"Agence immobilière","classeVulnerabilite":"Commerce / service courant","adresse":"18 Avenue du 8 Mai 1945","zoneCode":"BLEU_AZU","zoneColor":"#64B5F6","concerne":true}},{"type":"Feature","geometry":{"coordinates":[5.371742,43.405036],"type":"Point"},"properties":{"nom":"Art Flore'M / Fleuriste INTERFLORA","activite":"Fleuriste","classeVulnerabilite":"Commerce / service courant","adresse":"253 Avenue du 8 Mai 1945","zoneCode":"BLEU_CU","zoneColor":"#1565C0","concerne":true}},{"type":"Feature","geometry":{"coordinates":[5.366515,43.398503],"type":"Point"},"properties":{"nom":"Au Croissant De Lune","activite":"Boulangerie Pâtisserie","classeVulnerabilite":"Commerce / service courant","adresse":"50 Avenue du 8 Mai 1945","zoneCode":"BLEU_CU","zoneColor":"#1565C0","concerne":true}},{"type":"Feature","geometry":{"coordinates":[5.35966,43.387841],"type":"Point"},"properties":{"nom":"AUTO ÉCOLE FRESH DRIVER2","activite":"Auto école","classeVulnerabilite":"Commerce / service courant","adresse":"55 Avenue du 8 Mai 1945","zoneCode":"VIOLET","zoneColor":"#8E24AA","concerne":true}},{"type":"Feature","geometry":{"coordinates":[5.36799,43.39947],"type":"Point"},"properties":{"nom":"Auto-école - Septèmes-les-Vallons | Auto-école Septemoise","activite":"Auto école","classeVulnerabilite":"Commerce / service courant","adresse":"199 Avenue du 8 Mai 1945","zoneColor":"#9E9E9E","concerne":false}},{"type":"Feature","geometry":{"coordinates":[5.358991,43.386744],"type":"Point"},"properties":{"nom":"Auto-école Weismuller","activite":"Auto école","classeVulnerabilite":"Commerce / service courant","adresse":"27 Avenue du 8 Mai 1945","zoneCode":"BLEU_CU","zoneColor":"#1565C0","concerne":true}},{"type":"Feature","geometry":{"coordinates":[5.366066,43.39849],"type":"Point"},"properties":{"nom":"Axial","activite":"Carrosserie","classeVulnerabilite":"Commerce / service courant","adresse":"Avenue du 8 Mai 1945","zoneCode":"VIOLET","zoneColor":"#8E24AA","concerne":true}},{"type":"Feature","geometry":{"coordinates":[5.366922,43.39862],"type":"Point"},"properties":{"nom":"Bella Esthétique","activite":"Soins de beauté, esthétique","classeVulnerabilite":"Commerce / service courant","adresse":"56 Avenue du 8 Mai 1945","zoneCode":"ROUGE_CU","zoneColor":"#C62828","concerne":true}},{"type":"Feature","geometry":{"coordinates":[5.358625,43.385333],"type":"Point"},"properties":{"nom":"BOUCHERIE ADAM","activite":"Boucherie / commerce de viande","classeVulnerabilite":"Commerce / service courant","adresse":"5 Avenue du 8 Mai 1945","zoneCode":"BLEU_CU","zoneColor":"#1565C0","concerne":true}},{"type":"Feature","geometry":{"coordinates":[5.366066,43.39849],"type":"Point"},"properties":{"nom":"Cabinet Dentaire Les Pins","activite":"Dentiste, chirurgien dentiste","classeVulnerabilite":"Commerce / service courant","adresse":"Avenue du 8 Mai 1945","zoneCode":"VIOLET","zoneColor":"#8E24AA","concerne":true}},{"type":"Feature","geometry":{"coordinates":[5.366066,43.39849],"type":"Point"},"properties":{"nom":"Cabinet Dona - Renata Franca","activite":"Soins de beauté, esthétique","classeVulnerabilite":"Commerce / service courant","adresse":"Avenue du 8 Mai 1945","zoneCode":"VIOLET","zoneColor":"#8E24AA","concerne":true}},{"type":"Feature","geometry":{"coordinates":[5.365621,43.402576],"type":"Point"},"properties":{"nom":"Caisse d'Epargne Septemes","activite":"Banques, caisses d'épargne","classeVulnerabilite":"Commerce / service courant","adresse":"Rue de la Carrière","zoneColor":"#9E9E9E","concerne":false}},{"type":"Feature","geometry":{"coordinates":[5.3719,43.409533],"type":"Point"},"properties":{"nom":"Calixta Institut De Beaute","activite":"Soins de beauté, esthétique","classeVulnerabilite":"Commerce / service courant","adresse":"132 Avenue du 8 Mai 1945","zoneColor":"#9E9E9E","concerne":false}},{"type":"Feature","geometry":{"coordinates":[5.342089,43.402713],"type":"Point"},"properties":{"nom":"Carlangel beauté","activite":"Soins de beauté, esthétique","classeVulnerabilite":"Commerce / service courant","adresse":"6 Chemin du Vallon de la Gazelle","zoneColor":"#9E9E9E","concerne":false}},{"type":"Feature","geometry":{"coordinates":[5.366359,43.397853],"type":"Point"},"properties":{"nom":"Centre culturel Louis Aragon (vieille église)","activite":"Théâtre","classeVulnerabilite":"Commerce / service courant","adresse":"Rue du Vallon du Maire","zoneColor":"#9E9E9E","concerne":false}},{"type":"Feature","geometry":{"coordinates":[5.366066,43.39849],"type":"Point"},"properties":{"nom":"Centre de Dépistage Covid-19","activite":"Laboratoire d'analyse médicale","classeVulnerabilite":"Commerce / service courant","adresse":"Avenue du 8 Mai 1945","zoneCode":"VIOLET","zoneColor":"#8E24AA","concerne":true}},{"type":"Feature","geometry":{"coordinates":[5.35478,43.406602],"type":"Point"},"properties":{"nom":"Chambre funéraire Baldassano - La Haute Bédoule","activite":"Pompes funèbres","classeVulnerabilite":"Commerce / service courant","adresse":"453 Chemin du Pigeonnier","zoneColor":"#9E9E9E","concerne":false}},{"type":"Feature","geometry":{"coordinates":[5.355224,43.405467],"type":"Point"},"properties":{"nom":"Cimetière de la Haute Bédoule","activite":"Cimetière","classeVulnerabilite":"Commerce / service courant","adresse":"325 Chemin du Pigeonnier","zoneColor":"#9E9E9E","concerne":false}},{"type":"Feature","geometry":{"coordinates":[5.369484,43.403684],"type":"Point"},"properties":{"nom":"Cimetière des Collines - Septèmes-les-Vallons","activite":"Cimetière","classeVulnerabilite":"Commerce / service courant","adresse":"307 Boulevard Antoine Vabre","zoneColor":"#9E9E9E","concerne":false}},{"type":"Feature","geometry":{"coordinates":[5.358362,43.38568],"type":"Point"},"properties":{"nom":"Clinique Vétérinaire de la Limite","activite":"Vétérinaire","classeVulnerabilite":"Commerce / service courant","adresse":"3 Boulevard de la Limite","zoneColor":"#9E9E9E","concerne":false}},{"type":"Feature","geometry":{"coordinates":[5.366066,43.39849],"type":"Point"},"properties":{"nom":"Coiffure New Style Esthétique Septemes","activite":"Coiffure","classeVulnerabilite":"Commerce / service courant","adresse":"Avenue du 8 Mai 1945","zoneCode":"VIOLET","zoneColor":"#8E24AA","concerne":true}},{"type":"Feature","geometry":{"coordinates":[5.369391,43.407516],"type":"Point"},"properties":{"nom":"Collège Ferrandi","activite":"Groupe scolaire","classeVulnerabilite":"Établissement sensible (vulnérabilité classe A - accueil enfants/personnes âgées)","adresse":"11 Chemin du Four à Chaux","zoneColor":"#9E9E9E","concerne":false}},{"type":"Feature","geometry":{"coordinates":[5.370887,43.407676],"type":"Point"},"properties":{"nom":"Collège Marc Ferrandi","activite":"Collège","classeVulnerabilite":"Établissement sensible (vulnérabilité classe A - accueil enfants/personnes âgées)","adresse":"108 Avenue du 8 Mai 1945","zoneCode":"BLEU_AZU","zoneColor":"#64B5F6","concerne":true}},{"type":"Feature","geometry":{"coordinates":[5.359331,43.386815],"type":"Point"},"properties":{"nom":"Crédit Mutuel","activite":"Banques, caisses d'épargne","classeVulnerabilite":"Commerce / service courant","adresse":"10 Avenue du 8 Mai 1945","zoneCode":"BLEU_CU","zoneColor":"#1565C0","concerne":true}},{"type":"Feature","geometry":{"coordinates":[5.359084,43.386156],"type":"Point"},"properties":{"nom":"Dynasty of Beauty","activite":"Soins de beauté, esthétique","classeVulnerabilite":"Commerce / service courant","adresse":"4 Avenue du 8 Mai 1945","zoneCode":"ORANGE_AZU","zoneColor":"#F57C00","concerne":true}},{"type":"Feature","geometry":{"coordinates":[5.356275,43.404582],"type":"Point"},"properties":{"nom":"EHPAD Le Chêne Vert","activite":"Ehpad","classeVulnerabilite":"Établissement sensible (vulnérabilité classe A - accueil enfants/personnes âgées)","adresse":"Chemin du Pigeonnier","zoneColor":"#9E9E9E","concerne":false}},{"type":"Feature","geometry":{"coordinates":[5.366628,43.398539],"type":"Point"},"properties":{"nom":"Espace jeunes municipal - Septèmes-les-Vallons","activite":"Point information jeunesse","classeVulnerabilite":"Commerce / service courant","adresse":"52 Avenue du 8 Mai 1945","zoneCode":"BLEU_CU","zoneColor":"#1565C0","concerne":true}},{"type":"Feature","geometry":{"coordinates":[5.355965,43.405542],"type":"Point"},"properties":{"nom":"Estimation immobiliere gratuite","activite":"Agence immobilière","classeVulnerabilite":"Commerce / service courant","adresse":"28 Hameau Saint-Laurent","zoneColor":"#9E9E9E","concerne":false}},{"type":"Feature","geometry":{"coordinates":[5.359056,43.385908],"type":"Point"},"properties":{"nom":"Eurofins - Laboratoire d'analyses médicales Septèmes-les-Vallons","activite":"Laboratoire d'analyse médicale","classeVulnerabilite":"Commerce / service courant","adresse":"2 Avenue du 8 Mai 1945","zoneCode":"BLEU_AZU","zoneColor":"#64B5F6","concerne":true}},{"type":"Feature","geometry":{"coordinates":[5.362379,43.399986],"type":"Point"},"properties":{"nom":"Galicoiff'&beauté","activite":"Coiffure","classeVulnerabilite":"Commerce / service courant","adresse":"Les Hauts de Septèmes Hameau Sud","zoneColor":"#9E9E9E","concerne":false}},{"type":"Feature","geometry":{"coordinates":[5.360733,43.388536],"type":"Point"},"properties":{"nom":"Instant Dou'soeurs","activite":"Soins de beauté, esthétique","classeVulnerabilite":"Commerce / service courant","adresse":"22 Avenue du 8 Mai 1945","zoneCode":"ORANGE_AZU","zoneColor":"#F57C00","concerne":true}},{"type":"Feature","geometry":{"coordinates":[5.363939,43.391672],"type":"Point"},"properties":{"nom":"Intermarché SUPER Septèmes Les Vallons","activite":"Hypermarché","classeVulnerabilite":"Commerce / service courant","adresse":"32 Avenue du 8 Mai 1945","zoneCode":"BLEU_AZU","zoneColor":"#64B5F6","concerne":true}},{"type":"Feature","geometry":{"coordinates":[5.366187,43.399139],"type":"Point"},"properties":{"nom":"La Poste","activite":"Bureau de poste","classeVulnerabilite":"Commerce / service courant","adresse":"Place Pierre Didier Tramoni","zoneCode":"BLEU_CU","zoneColor":"#1565C0","concerne":true}},{"type":"Feature","geometry":{"coordinates":[5.364774,43.402378],"type":"Point"},"properties":{"nom":"L'Atelier by J","activite":"Coiffure","classeVulnerabilite":"Commerce / service courant","adresse":"Rue de la Tour","zoneColor":"#9E9E9E","concerne":false}},{"type":"Feature","geometry":{"coordinates":[5.364523,43.405861],"type":"Point"},"properties":{"nom":"l'atelier de cécile (sur commande 24h avant)","activite":"Fleuriste","classeVulnerabilite":"Commerce / service courant","adresse":"38 Route d’Apt","zoneColor":"#9E9E9E","concerne":false}},{"type":"Feature","geometry":{"coordinates":[5.355442,43.398399],"type":"Point"},"properties":{"nom":"Le chalet Du Bien Etre","activite":"Soins de beauté, esthétique","classeVulnerabilite":"Commerce / service courant","adresse":"Traverse Eugene Michel","zoneColor":"#9E9E9E","concerne":false}},{"type":"Feature","geometry":{"coordinates":[5.371505,43.404162],"type":"Point"},"properties":{"nom":"Le Salon D Axelle","activite":"Coiffure","classeVulnerabilite":"Commerce / service courant","adresse":"94 Avenue du 8 Mai 1945","zoneColor":"#9E9E9E","concerne":false}},{"type":"Feature","geometry":{"coordinates":[5.359614,43.405254],"type":"Point"},"properties":{"nom":"Lycée Professionnel Sainte Elisabeth","activite":"Lycée","classeVulnerabilite":"Établissement sensible (vulnérabilité classe A - accueil enfants/personnes âgées)","adresse":"Chemin de la Haute Bédoule","zoneColor":"#9E9E9E","concerne":false}},{"type":"Feature","geometry":{"coordinates":[5.369449,43.403933],"type":"Point"},"properties":{"nom":"Made With Love","activite":"Soins de beauté, esthétique","classeVulnerabilite":"Commerce / service courant","adresse":"Boulevard Antoine Vabre","zoneColor":"#9E9E9E","concerne":false}},{"type":"Feature","geometry":{"coordinates":[5.366187,43.399139],"type":"Point"},"properties":{"nom":"Mairie de Septèmes-les-Vallons","activite":"Mairie","classeVulnerabilite":"Établissement stratégique (gestion de crise communale)","adresse":"Place Pierre Didier Tramoni","zoneCode":"BLEU_CU","zoneColor":"#1565C0","concerne":true}},{"type":"Feature","geometry":{"coordinates":[5.35588,43.388699],"type":"Point"},"properties":{"nom":"Mairie - Septèmes-les-Vallons","activite":"Mairie","classeVulnerabilite":"Établissement stratégique (gestion de crise communale)","adresse":"Place Didier-Tramoni","zoneColor":"#9E9E9E","concerne":false}},{"type":"Feature","geometry":{"coordinates":[5.369194,43.400859],"type":"Point"},"properties":{"nom":"Médiathèque Jorgi Reboul, Septèmes-les-Vallons","activite":"Bibliothèque médiathèque","classeVulnerabilite":"Commerce / service courant","adresse":"205 Avenue du 8 Mai 1945","zoneColor":"#9E9E9E","concerne":false}},{"type":"Feature","geometry":{"coordinates":[5.364739,43.401849],"type":"Point"},"properties":{"nom":"Monjungle","activite":"Jardinerie","classeVulnerabilite":"Commerce / service courant","adresse":"176 Rue de la Tour","zoneColor":"#9E9E9E","concerne":false}},{"type":"Feature","geometry":{"coordinates":[5.349462,43.385102],"type":"Point"},"properties":{"nom":"Morgane Esthéticienne , Masseuse bien-être A Domicile","activite":"Soins de beauté, esthétique","classeVulnerabilite":"Commerce / service courant","adresse":"Residence Parc Beausoleil","zoneColor":"#9E9E9E","concerne":false}},{"type":"Feature","geometry":{"coordinates":[5.365621,43.402576],"type":"Point"},"properties":{"nom":"Old School Garage","activite":"Carrosserie","classeVulnerabilite":"Commerce / service courant","adresse":"Rue de la Carrière","zoneColor":"#9E9E9E","concerne":false}},{"type":"Feature","geometry":{"coordinates":[5.353457,43.38884],"type":"Point"},"properties":{"nom":"Pharmacie Gavotte Peyret Dr HEBIDI","activite":"Pharmacie","classeVulnerabilite":"Commerce / service courant","adresse":"Résidence la Gavotte Peyret, 43 chemin de la Bédoule","zoneColor":"#9E9E9E","concerne":false}},{"type":"Feature","geometry":{"coordinates":[5.351889,43.40575],"type":"Point"},"properties":{"nom":"Plaque Funéraire Personnalisée.fr","activite":"Pompes funèbres","classeVulnerabilite":"Commerce / service courant","adresse":"11 Impasse du Pigeonnier","zoneColor":"#9E9E9E","concerne":false}},{"type":"Feature","geometry":{"coordinates":[5.366187,43.399139],"type":"Point"},"properties":{"nom":"Point-justice - relais d'accès au droit de l'Hotel de Ville de Septèmes les Vallons","activite":"Point justice","classeVulnerabilite":"Commerce / service courant","adresse":"Place Pierre Didier Tramoni","zoneCode":"BLEU_CU","zoneColor":"#1565C0","concerne":true}},{"type":"Feature","geometry":{"coordinates":[5.371736,43.405084],"type":"Point"},"properties":{"nom":"Poli-Dini Carole","activite":"Coiffure","classeVulnerabilite":"Commerce / service courant","adresse":"255 Avenue du 8 Mai 1945","zoneCode":"BLEU_CU","zoneColor":"#1565C0","concerne":true}},{"type":"Feature","geometry":{"coordinates":[5.359874,43.387639],"type":"Point"},"properties":{"nom":"Pompes Funèbres Baldassano","activite":"Pompes funèbres","classeVulnerabilite":"Commerce / service courant","adresse":"18 Avenue du 8 Mai 1945","zoneCode":"BLEU_AZU","zoneColor":"#64B5F6","concerne":true}},{"type":"Feature","geometry":{"coordinates":[5.36681,43.398586],"type":"Point"},"properties":{"nom":"Pouce Jean-Philippe","activite":"Boucherie / commerce de viande","classeVulnerabilite":"Commerce / service courant","adresse":"54 Avenue du 8 Mai 1945","zoneCode":"ROUGE_CU","zoneColor":"#C62828","concerne":true}},{"type":"Feature","geometry":{"coordinates":[5.359144,43.387096],"type":"Point"},"properties":{"nom":"Prélude Coiffure","activite":"Coiffure","classeVulnerabilite":"Commerce / service courant","adresse":"37 Avenue du 8 Mai 1945","zoneCode":"VIOLET","zoneColor":"#8E24AA","concerne":true}},{"type":"Feature","geometry":{"coordinates":[5.363293,43.391444],"type":"Point"},"properties":{"nom":"salle Jean Ferrat","activite":"Salle des fêtes","classeVulnerabilite":"Commerce / service courant","adresse":"89 Avenue du 8 Mai 1945","zoneCode":"VIOLET","zoneColor":"#8E24AA","concerne":true}},{"type":"Feature","geometry":{"coordinates":[5.358625,43.385333],"type":"Point"},"properties":{"nom":"SEPTEMES OPTIQUE","activite":"Opticien","classeVulnerabilite":"Commerce / service courant","adresse":"5 Avenue du 8 Mai 1945","zoneCode":"BLEU_CU","zoneColor":"#1565C0","concerne":true}},{"type":"Feature","geometry":{"coordinates":[5.359671,43.391073],"type":"Point"},"properties":{"nom":"Stade Henri Fasano","activite":"Stade","classeVulnerabilite":"Commerce / service courant","adresse":"5 Rue Jean Louis Pic","zoneColor":"#9E9E9E","concerne":false}},{"type":"Feature","geometry":{"coordinates":[5.372224,43.410789],"type":"Point"},"properties":{"nom":"SYNLAB Provence - Septèmes les Vallons","activite":"Laboratoire d'analyse médicale","classeVulnerabilite":"Commerce / service courant","adresse":"309 Avenue du 8 Mai 1945","zoneColor":"#9E9E9E","concerne":false}},{"type":"Feature","geometry":{"coordinates":[5.369449,43.403933],"type":"Point"},"properties":{"nom":"T2 tout neuf avec Parking à 10km d'Aix et Marseille","activite":"Hôtel","classeVulnerabilite":"Commerce / service courant","adresse":"Boulevard Antoine Vabre","zoneColor":"#9E9E9E","concerne":false}},{"type":"Feature","geometry":{"coordinates":[5.357175,43.401184],"type":"Point"},"properties":{"nom":"THE FACE INSTITUT","activite":"Soins de beauté, esthétique","classeVulnerabilite":"Commerce / service courant","adresse":"15 Chemin de la Bédoule","zoneColor":"#9E9E9E","concerne":false}},{"type":"Feature","geometry":{"coordinates":[5.360733,43.388536],"type":"Point"},"properties":{"nom":"Uzumaki Sushi","activite":"Restauration rapide","classeVulnerabilite":"Commerce / service courant","adresse":"22 Avenue du 8 Mai 1945","zoneCode":"ORANGE_AZU","zoneColor":"#F57C00","concerne":true}},{"type":"Feature","geometry":{"coordinates":[5.369449,43.403933],"type":"Point"},"properties":{"nom":"Vip Coiffure","activite":"Coiffure","classeVulnerabilite":"Commerce / service courant","adresse":"Boulevard Antoine Vabre","zoneColor":"#9E9E9E","concerne":false}}]}